APRIZESAT 2             
1 28366U 04025A   26178.72175783  .00000194  00000+0  73499-4 0  9999
2 28366  98.1021 344.1062 0104782 217.7175 141.6636 14.38040029153153
SAUDICOMSAT 1           
1 28369U 04025D   26178.87809973  .00000364  00000+0  94622-4 0  9993
2 28369  98.5770 189.2979 0031951 353.1261   6.9493 14.55481704165687
SAUDICOMSAT 2           
1 28370U 04025E   26178.54509651  .00000217  00000+0  67807-4 0  9991
2 28370  98.6639 191.0843 0054516 227.5243 132.1336 14.49986352161609
APRIZESAT 1             
1 28372U 04025G   26178.97750909  .00000266  00000+0  77436-4 0  9997
2 28372  98.6302 189.9967 0045592 121.6687 238.8966 14.51782813163470
NANOSAT-1               
1 28493U 04049B   26178.85000064  .00001026  00000+0  14239-3 0  9990
2 28493  98.2288 315.7724 0002759 252.2488 107.8422 14.80179582157022
SAUDICOMSAT 7           
1 31119U 07012C   26178.89602794  .00000492  00000+0  97024-4 0  9994
2 31119  98.3783 153.2471 0056055 161.6358 198.6886 14.66119810 24008
SAUDICOMSAT 6           
1 31121U 07012E   26178.89955947  .00000488  00000+0  10308-3 0  9992
2 31121  98.4103 146.6156 0070507 293.9550  65.4278 14.62569669 21757
SAUDICOMSAT 5           
1 31124U 07012H   26178.85450676  .00000716  00000+0  13144-3 0  9995
2 31124  98.3494 153.9495 0048740  92.0109 268.6678 14.68170123 25160
SAUDICOMSAT 3           
1 31125U 07012J   26178.86456960  .00000872  00000+0  15012-3 0  9998
2 31125  98.3147 154.5072 0039584  20.2358 340.0406 14.70723350 26398
SAUDICOMSAT 4           
1 31127U 07012L   26178.88130144  .00000398  00000+0  82942-4 0  9995
2 31127  98.3988 151.6702 0062420 224.1844 135.4364 14.64521420 22854
APRIZESAT 4             
1 35684U 09041D   26178.77634323  .00000638  00000+0  82788-4 0  9992
2 35684  98.1411 254.3077 0041936 287.8052  71.8588 14.83892141912937
APRIZESAT 3             
1 35686U 09041F   26178.86569564  .00000868  00000+0  79815-4 0  9990
2 35686  98.2076 332.6019 0062403  32.8473 327.6601 14.96272026917975
S-NET D                 
1 43186U 18014G   26178.68780379  .00005250  00000+0  27075-3 0  9993
2 43186  97.5361  83.4132 0007781 355.7340   4.3825 15.16766898460353
S-NET B                 
1 43187U 18014H   26178.96335229  .00005091  00000+0  26284-3 0  9999
2 43187  97.5363  83.6739 0008204 348.9681  11.1371 15.16739727460391
S-NET A                 
1 43188U 18014J   26178.68662395  .00005352  00000+0  27585-3 0  9991
2 43188  97.5374  83.6098 0008162 350.8126   9.2956 15.16775550460358
S-NET C                 
1 43189U 18014K   26178.96728252  .00004893  00000+0  25277-3 0  9993
2 43189  97.5391  83.9651 0009225 340.1881  19.8993 15.16731550458949
SALSAT                  
1 46495U 20068K   26178.74142451  .00007317  00000+0  25510-3 0  9999
2 46495  97.8846 182.4496 0007842 262.7765  97.2583 15.29943751316978
OOV-CUBE (TUBSAT-30)    
1 60240U 24128F   26178.50198201  .00001706  00000+0  14007-3 0  9997
2 60240  61.9924 189.6042 0043347 136.0616 224.3935 15.02808571107664
LPNTSAT-001 (IOD-1)     
1 68408U 26065A   26178.15851600  .00002970  00000+0  14650-3 0  9991
2 68408  97.4012  58.4571 0015593 335.5283  24.5209 15.18586417 13779
